ONEWEB-0456             
1 51646U 22012AA  23273.37534520 -.00000687  00000+0 -20037-2 0  9991
2 51646  87.8863 233.0113 0002141  74.7161 285.4203 13.10373325 80876
ONEWEB-0457             
1 51647U 22012AB  23272.97084874  .00000352  00000+0  97309-3 0  9993
2 51647  87.8860 233.0946 0001656  89.6621 270.4696 13.10374375 80836
ONEWEB-0458             
1 51648U 22012AC  23272.91557632 -.00000543  00000+0 -15909-2 0  9994
2 51648  87.8863 233.1188 0002205  85.5495 274.5884 13.10372871 80781
ONEWEB-0461             
1 51649U 22012AD  23272.34933154  .00000239  00000+0  58190-3 0  9999
2 51649  87.9358 202.9460 0001892  78.8716 281.2628 13.17650129 83271
ONEWEB-0463             
1 51650U 22012AE  23272.78807034  .00000073  00000+0  15609-3 0  9990
2 51650  87.9246 202.9047 0001779  78.6270 281.5062 13.17649560 84416
ONEWEB-0464             
1 51651U 22012AF  23273.37049035 -.00000310  00000+0 -92367-3 0  9998
2 51651  87.8862 233.0168 0002348  74.4240 285.7146 13.10366530 80863
ONEWEB-0468             
1 51652U 22012AG  23272.46068859 -.00000625  00000+0 -18258-2 0  9998
2 51652  87.8863 233.1903 0002062  82.1386 277.9975 13.10372210 80712
ONEWEB-0473             
1 51653U 22012AH  23272.82787760  .00000192  00000+0  51457-3 0  9994
2 51653  87.8860 233.1219 0002121  83.0448 277.0920 13.10370709 80773
